[{"CCSDS_OMM_VERS":"2.0","COMMENT":"GENERATED VIA SPACE-TRACK.ORG API","CREATION_DATE":"2021-04-26T22:56:11","ORIGINATOR":"18 SPCS","OBJECT_NAME":"TBA - TO BE ASSIGNED","OBJECT_ID":"2021-031Y","CENTER_NAME":"EARTH","REF_FRAME":"TEME","TIME_SYSTEM":"UTC","MEAN_ELEMENT_THEORY":"SGP4","EPOCH":"2021-04-26T20:00:01.999872","MEAN_MOTION":"15.42190539","ECCENTRICITY":"0.00082890","INCLINATION":"87.3975","RA_OF_ASC_NODE":"312.8594","ARG_OF_PERICENTER":"258.5050","MEAN_ANOMALY":"133.7677","EPHEMERIS_TYPE":"0","CLASSIFICATION_TYPE":"U","NORAD_CAT_ID":"48232","ELEMENT_SET_NO":"999","REV_AT_EPOCH":"13","BSTAR":"0.00060958000000","MEAN_MOTION_DOT":"0.00026241","MEAN_MOTION_DDOT":"0.0000000000000","SEMIMAJOR_AXIS":"6817.783","PERIOD":"93.374","APOAPSIS":"445.299","PERIAPSIS":"433.996","OBJECT_TYPE":"TBA","RCS_SIZE":null,"COUNTRY_CODE":null,"LAUNCH_DATE":null,"SITE":null,"DECAY_DATE":null,"FILE":"3025855","GP_ID":"176188739","TLE_LINE0":"0 TBA - TO BE ASSIGNED","TLE_LINE1":"1 48232U 21031Y   21116.83335648  .00026241  00000-0  60958-3 0  9993","TLE_LINE2":"2 48232  87.3975 312.8594 0008289 258.5050 133.7677 15.42190539   131"},{"CCSDS_OMM_VERS":"2.0","COMMENT":"GENERATED VIA SPACE-TRACK.ORG API","CREATION_DATE":"2021-04-27T02:49:35","ORIGINATOR":"18 SPCS","OBJECT_NAME":"TBA - TO BE ASSIGNED","OBJECT_ID":"2021-031Y","CENTER_NAME":"EARTH","REF_FRAME":"TEME","TIME_SYSTEM":"UTC","MEAN_ELEMENT_THEORY":"SGP4","EPOCH":"2021-04-26T20:00:01.999872","MEAN_MOTION":"15.42190539","ECCENTRICITY":"0.00082890","INCLINATION":"87.3975","RA_OF_ASC_NODE":"312.8594","ARG_OF_PERICENTER":"258.5050","MEAN_ANOMALY":"133.7677","EPHEMERIS_TYPE":"0","CLASSIFICATION_TYPE":"U","NORAD_CAT_ID":"48232","ELEMENT_SET_NO":"999","REV_AT_EPOCH":"13","BSTAR":"0.00060958000000","MEAN_MOTION_DOT":"0.00026241","MEAN_MOTION_DDOT":"0.0000000000000","SEMIMAJOR_AXIS":"6817.783","PERIOD":"93.374","APOAPSIS":"445.299","PERIAPSIS":"433.996","OBJECT_TYPE":"TBA","RCS_SIZE":null,"COUNTRY_CODE":null,"LAUNCH_DATE":null,"SITE":null,"DECAY_DATE":null,"FILE":"3025880","GP_ID":"176211871","TLE_LINE0":"0 TBA - TO BE ASSIGNED","TLE_LINE1":"1 48232U 21031Y   21116.83335648  .00026241  00000-0  60958-3 0  9993","TLE_LINE2":"2 48232  87.3975 312.8594 0008289 258.5050 133.7677 15.42190539   131"},{"CCSDS_OMM_VERS":"2.0","COMMENT":"GENERATED VIA SPACE-TRACK.ORG API","CREATION_DATE":"2021-04-27T18:07:57","ORIGINATOR":"18 SPCS","OBJECT_NAME":"ONEWEB-0220","OBJECT_ID":"2021-031Y","CENTER_NAME":"EARTH","REF_FRAME":"TEME","TIME_SYSTEM":"UTC","MEAN_ELEMENT_THEORY":"SGP4","EPOCH":"2021-04-27T14:00:01.000224","MEAN_MOTION":"15.42238116","ECCENTRICITY":"0.00083080","INCLINATION":"87.3977","RA_OF_ASC_NODE":"312.5922","ARG_OF_PERICENTER":"254.1350","MEAN_ANOMALY":"339.0993","EPHEMERIS_TYPE":"0","CLASSIFICATION_TYPE":"U","NORAD_CAT_ID":"48232","ELEMENT_SET_NO":"999","REV_AT_EPOCH":"154","BSTAR":"-0.00058713000000","MEAN_MOTION_DOT":"-0.00025057","MEAN_MOTION_DDOT":"0.0000000000000","SEMIMAJOR_AXIS":"6817.642","PERIOD":"93.371","APOAPSIS":"445.172","PERIAPSIS":"433.843","OBJECT_TYPE":"PAYLOAD","RCS_SIZE":null,"COUNTRY_CODE":null,"LAUNCH_DATE":null,"SITE":null,"DECAY_DATE":null,"FILE":"3026384","GP_ID":"176245696","TLE_LINE0":"0 TBA - TO BE ASSIGNED","TLE_LINE1":"1 48232U 21031Y   21117.58334491 -.00025057  00000-0 -58713-3 0  9993","TLE_LINE2":"2 48232  87.3977 312.5922 0008308 254.1350 339.0993 15.42238116  1544"},{"CCSDS_OMM_VERS":"2.0","COMMENT":"GENERATED VIA SPACE-TRACK.ORG API","CREATION_DATE":"2021-04-27T22:26:12","ORIGINATOR":"18 SPCS","OBJECT_NAME":"ONEWEB-0220","OBJECT_ID":"2021-031Y","CENTER_NAME":"EARTH","REF_FRAME":"TEME","TIME_SYSTEM":"UTC","MEAN_ELEMENT_THEORY":"SGP4","EPOCH":"2021-04-27T20:00:01.000224","MEAN_MOTION":"15.42200942","ECCENTRICITY":"0.00083000","INCLINATION":"87.3976","RA_OF_ASC_NODE":"312.5015","ARG_OF_PERICENTER":"253.6536","MEAN_ANOMALY":"286.6180","EPHEMERIS_TYPE":"0","CLASSIFICATION_TYPE":"U","NORAD_CAT_ID":"48232","ELEMENT_SET_NO":"999","REV_AT_EPOCH":"28","BSTAR":"0.00051815000000","MEAN_MOTION_DOT":"0.00022309","MEAN_MOTION_DDOT":"0.0000000000000","SEMIMAJOR_AXIS":"6817.752","PERIOD":"93.373","APOAPSIS":"445.276","PERIAPSIS":"433.958","OBJECT_TYPE":"PAYLOAD","RCS_SIZE":null,"COUNTRY_CODE":"UK","LAUNCH_DATE":"2021-04-25","SITE":"VOSTO","DECAY_DATE":null,"FILE":"3026448","GP_ID":"176247043","TLE_LINE0":"0 ONEWEB-0220","TLE_LINE1":"1 48232U 21031Y   21117.83334491  .00022309  00000-0  51815-3 0  9992","TLE_LINE2":"2 48232  87.3976 312.5015 0008300 253.6536 286.6180 15.42200942   289"},{"CCSDS_OMM_VERS":"2.0","COMMENT":"GENERATED VIA SPACE-TRACK.ORG API","CREATION_DATE":"2021-04-28T17:59:09","ORIGINATOR":"18 SPCS","OBJECT_NAME":"ONEWEB-0220","OBJECT_ID":"2021-031Y","CENTER_NAME":"EARTH","REF_FRAME":"TEME","TIME_SYSTEM":"UTC","MEAN_ELEMENT_THEORY":"SGP4","EPOCH":"2021-04-28T06:00:00.999648","MEAN_MOTION":"15.42230506","ECCENTRICITY":"0.00082090","INCLINATION":"87.3976","RA_OF_ASC_NODE":"312.3536","ARG_OF_PERICENTER":"251.1886","MEAN_ANOMALY":"80.7763","EPHEMERIS_TYPE":"0","CLASSIFICATION_TYPE":"U","NORAD_CAT_ID":"48232","ELEMENT_SET_NO":"999","REV_AT_EPOCH":"164","BSTAR":"-0.00065064000000","MEAN_MOTION_DOT":"-0.00027755","MEAN_MOTION_DDOT":"0.0000000000000","SEMIMAJOR_AXIS":"6817.665","PERIOD":"93.371","APOAPSIS":"445.126","PERIAPSIS":"433.933","OBJECT_TYPE":"PAYLOAD","RCS_SIZE":null,"COUNTRY_CODE":"UK","LAUNCH_DATE":"2021-04-25","SITE":"VOSTO","DECAY_DATE":null,"FILE":"3026951","GP_ID":"176280832","TLE_LINE0":"0 ONEWEB-0220","TLE_LINE1":"1 48232U 21031Y   21118.25001157 -.00027755  00000-0 -65064-3 0  9992","TLE_LINE2":"2 48232  87.3976 312.3536 0008209 251.1886  80.7763 15.42230506  1644"},{"CCSDS_OMM_VERS":"2.0","COMMENT":"GENERATED VIA SPACE-TRACK.ORG API","CREATION_DATE":"2021-04-29T04:01:24","ORIGINATOR":"18 SPCS","OBJECT_NAME":"ONEWEB-0220","OBJECT_ID":"2021-031Y","CENTER_NAME":"EARTH","REF_FRAME":"TEME","TIME_SYSTEM":"UTC","MEAN_ELEMENT_THEORY":"SGP4","EPOCH":"2021-04-28T20:00:04.999680","MEAN_MOTION":"15.42170875","ECCENTRICITY":"0.00082620","INCLINATION":"87.3980","RA_OF_ASC_NODE":"312.1436","ARG_OF_PERICENTER":"253.8300","MEAN_ANOMALY":"74.7611","EPHEMERIS_TYPE":"0","CLASSIFICATION_TYPE":"U","NORAD_CAT_ID":"48232","ELEMENT_SET_NO":"999","REV_AT_EPOCH":"173","BSTAR":"0.00014536000000","MEAN_MOTION_DOT":"0.00006274","MEAN_MOTION_DDOT":"0.0000000000000","SEMIMAJOR_AXIS":"6817.841","PERIOD":"93.375","APOAPSIS":"445.339","PERIAPSIS":"434.073","OBJECT_TYPE":"PAYLOAD","RCS_SIZE":null,"COUNTRY_CODE":"UK","LAUNCH_DATE":"2021-04-25","SITE":"VOSTO","DECAY_DATE":null,"FILE":"3027159","GP_ID":"176307376","TLE_LINE0":"0 ONEWEB-0220","TLE_LINE1":"1 48232U 21031Y   21118.83339120  .00006274  00000-0  14536-3 0  9999","TLE_LINE2":"2 48232  87.3980 312.1436 0008262 253.8300  74.7611 15.42170875  1732"},{"CCSDS_OMM_VERS":"2.0","COMMENT":"GENERATED VIA SPACE-TRACK.ORG API","CREATION_DATE":"2021-04-28T22:36:19","ORIGINATOR":"18 SPCS","OBJECT_NAME":"ONEWEB-0220","OBJECT_ID":"2021-031Y","CENTER_NAME":"EARTH","REF_FRAME":"TEME","TIME_SYSTEM":"UTC","MEAN_ELEMENT_THEORY":"SGP4","EPOCH":"2021-04-28T20:00:04.999680","MEAN_MOTION":"15.42170875","ECCENTRICITY":"0.00082620","INCLINATION":"87.3980","RA_OF_ASC_NODE":"312.1436","ARG_OF_PERICENTER":"253.8300","MEAN_ANOMALY":"74.7611","EPHEMERIS_TYPE":"0","CLASSIFICATION_TYPE":"U","NORAD_CAT_ID":"48232","ELEMENT_SET_NO":"999","REV_AT_EPOCH":"43","BSTAR":"0.00014536000000","MEAN_MOTION_DOT":"0.00006274","MEAN_MOTION_DDOT":"0.0000000000000","SEMIMAJOR_AXIS":"6817.841","PERIOD":"93.375","APOAPSIS":"445.339","PERIAPSIS":"434.073","OBJECT_TYPE":"PAYLOAD","RCS_SIZE":null,"COUNTRY_CODE":"UK","LAUNCH_DATE":"2021-04-25","SITE":"VOSTO","DECAY_DATE":null,"FILE":"3027029","GP_ID":"176281914","TLE_LINE0":"0 ONEWEB-0220","TLE_LINE1":"1 48232U 21031Y   21118.83339120  .00006274  00000-0  14536-3 0  9999","TLE_LINE2":"2 48232  87.3980 312.1436 0008262 253.8300  74.7611 15.42170875   438"},{"CCSDS_OMM_VERS":"2.0","COMMENT":"GENERATED VIA SPACE-TRACK.ORG API","CREATION_DATE":"2021-04-29T20:37:29","ORIGINATOR":"18 SPCS","OBJECT_NAME":"ONEWEB-0220","OBJECT_ID":"2021-031Y","CENTER_NAME":"EARTH","REF_FRAME":"TEME","TIME_SYSTEM":"UTC","MEAN_ELEMENT_THEORY":"SGP4","EPOCH":"2021-04-29T06:00:02.000160","MEAN_MOTION":"15.42234313","ECCENTRICITY":"0.00083090","INCLINATION":"87.3979","RA_OF_ASC_NODE":"311.9953","ARG_OF_PERICENTER":"245.7642","MEAN_ANOMALY":"234.3670","EPHEMERIS_TYPE":"0","CLASSIFICATION_TYPE":"U","NORAD_CAT_ID":"48232","ELEMENT_SET_NO":"999","REV_AT_EPOCH":"174","BSTAR":"-0.00059181000000","MEAN_MOTION_DOT":"-0.00025253","MEAN_MOTION_DDOT":"0.0000000000000","SEMIMAJOR_AXIS":"6817.654","PERIOD":"93.371","APOAPSIS":"445.183","PERIAPSIS":"433.854","OBJECT_TYPE":"PAYLOAD","RCS_SIZE":null,"COUNTRY_CODE":"UK","LAUNCH_DATE":"2021-04-25","SITE":"VOSTO","DECAY_DATE":null,"FILE":"3027451","GP_ID":"176335495","TLE_LINE0":"0 ONEWEB-0220","TLE_LINE1":"1 48232U 21031Y   21119.25002315 -.00025253  00000-0 -59181-3 0  9994","TLE_LINE2":"2 48232  87.3979 311.9953 0008309 245.7642 234.3670 15.42234313  1740"}]